[{"OBJECT_NAME":"STARLINK-30845","OBJECT_ID":"2023-170B","EPOCH":"2026-03-09T10:18:34.171488","MEAN_MOTION":15.03060829,"ECCENTRICITY":9.377e-5,"INCLINATION":43.0009,"RA_OF_ASC_NODE":197.0622,"ARG_OF_PERICENTER":266.2361,"MEAN_ANOMALY":93.8374,"EPHEMERIS_TYPE":0,"CLASSIFICATION_TYPE":"U","NORAD_CAT_ID":58207,"ELEMENT_SET_NO":999,"REV_AT_EPOCH":13024,"BSTAR":0.00033221826,"MEAN_MOTION_DOT":4.349e-5,"MEAN_MOTION_DDOT":0},{"OBJECT_NAME":"FENGYUN 1C DEB","OBJECT_ID":"1999-025FL","EPOCH":"2026-03-09T22:45:53.964000","MEAN_MOTION":14.6476587,"ECCENTRICITY":0.01924493,"INCLINATION":98.0475,"RA_OF_ASC_NODE":57.7214,"ARG_OF_PERICENTER":300.1723,"MEAN_ANOMALY":112.544,"EPHEMERIS_TYPE":0,"CLASSIFICATION_TYPE":"U","NORAD_CAT_ID":29866,"ELEMENT_SET_NO":999,"REV_AT_EPOCH":1603,"BSTAR":0.0005168677,"MEAN_MOTION_DOT":3.558e-5,"MEAN_MOTION_DDOT":0}]
